start=new Date('2021-08-23T00:00:00.000Z').valueOf();
sats=[{"CENTER_NAME":"EARTH","PERIAPSIS":"545.817","BSTAR":"0.00007963100000","INCLINATION":"53.0540","SEMIMAJOR_AXIS":"6925.372","MEAN_MOTION":"15.06392291","TLE_LINE1":"1 44748U 19074AM  21234.95229300  .00000904  00000-0  79631-4 0  9993","DECAY_DATE":null,"COUNTRY_CODE":"US","EPHEMERIS_TYPE":"0","MEAN_ANOMALY":"285.1236","REV_AT_EPOCH":"9803","ELEMENT_SET_NO":"999","RCS_SIZE":"LARGE","MEAN_MOTION_DOT":"0.00000904","TLE_LINE2":"2 44748  53.0540 117.4719 0002051  74.9980 285.1236 15.06392291 98036","OBJECT_ID":"2019-074AM","GP_ID":"183269190","ECCENTRICITY":"0.00020510","LAUNCH_DATE":"2019-11-11","CLASSIFICATION_TYPE":"U","REF_FRAME":"TEME","MEAN_MOTION_DDOT":"0.0000000000000","SITE":"AFETR","EPOCH":"2021-08-22T22:51:18.115200","FILE":"3101563","PERIOD":"95.593","MEAN_ELEMENT_THEORY":"SGP4","RA_OF_ASC_NODE":"117.4719","OBJECT_NAME":"STARLINK-1043","NORAD_CAT_ID":"44748","ARG_OF_PERICENTER":"74.9980","APOAPSIS":"548.658","OBJECT_TYPE":"PAYLOAD","TIME_SYSTEM":"UTC"},{"RA_OF_ASC_NODE":"64.2382","MEAN_ELEMENT_THEORY":"SGP4","PERIOD":"91.382","ARG_OF_PERICENTER":"277.2632","NORAD_CAT_ID":"44749","OBJECT_NAME":"STARLINK-1044","TIME_SYSTEM":"UTC","OBJECT_TYPE":"PAYLOAD","APOAPSIS":"347.952","CLASSIFICATION_TYPE":"U","LAUNCH_DATE":"2019-11-11","ECCENTRICITY":"0.00083650","EPOCH":"2021-08-22T22:13:43.724928","SITE":"AFETR","MEAN_MOTION_DDOT":"0.0000000000000","REF_FRAME":"TEME","FILE":"3101563","DECAY_DATE":null,"REV_AT_EPOCH":"9877","MEAN_ANOMALY":"82.7436","EPHEMERIS_TYPE":"0","COUNTRY_CODE":"US","TLE_LINE2":"2 44749  53.0532  64.2382 0008365 277.2632  82.7436 15.75809669 98771","MEAN_MOTION_DOT":"0.00212444","RCS_SIZE":"LARGE","ELEMENT_SET_NO":"999","GP_ID":"183269440","OBJECT_ID":"2019-074AN","CENTER_NAME":"EARTH","BSTAR":"0.00131980000000","PERIAPSIS":"336.708","INCLINATION":"53.0532","MEAN_MOTION":"15.75809669","SEMIMAJOR_AXIS":"6720.465","TLE_LINE1":"1 44749U 19074AN  21234.92620052  .00212444  00000-0  13198-2 0  9998"},{"TLE_LINE1":"1 44751U 19074AQ  21234.83433874  .00000766  00000-0  70307-4 0  9994","MEAN_MOTION":"15.06392648","SEMIMAJOR_AXIS":"6925.371","BSTAR":"0.00007030700000","PERIAPSIS":"545.945","INCLINATION":"53.0552","CENTER_NAME":"EARTH","OBJECT_ID":"2019-074AQ","GP_ID":"183270692","TLE_LINE2":"2 44751  53.0552 118.0042 0001865  78.1714 281.9484 15.06392648 98015","MEAN_MOTION_DOT":"0.00000766","ELEMENT_SET_NO":"999","RCS_SIZE":"LARGE","MEAN_ANOMALY":"281.9484","REV_AT_EPOCH":"9801","EPHEMERIS_TYPE":"0","COUNTRY_CODE":"US","DECAY_DATE":null,"FILE":"3101563","SITE":"AFETR","EPOCH":"2021-08-22T20:01:26.867136","MEAN_MOTION_DDOT":"0.0000000000000","REF_FRAME":"TEME","CLASSIFICATION_TYPE":"U","ECCENTRICITY":"0.00018650","LAUNCH_DATE":"2019-11-11","OBJECT_TYPE":"PAYLOAD","TIME_SYSTEM":"UTC","APOAPSIS":"548.528","ARG_OF_PERICENTER":"78.1714","NORAD_CAT_ID":"44751","OBJECT_NAME":"STARLINK-1046","RA_OF_ASC_NODE":"118.0042","PERIOD":"95.593","MEAN_ELEMENT_THEORY":"SGP4"},{"DECAY_DATE":null,"COUNTRY_CODE":"US","EPHEMERIS_TYPE":"0","MEAN_ANOMALY":"274.2914","REV_AT_EPOCH":"9830","ELEMENT_SET_NO":"999","RCS_SIZE":"LARGE","MEAN_MOTION_DOT":"-0.00000701","TLE_LINE2":"2 44752  53.0538  97.6121 0001977  85.8301 274.2914 15.06393117 98308","OBJECT_ID":"2019-074AR","GP_ID":"183270943","CENTER_NAME":"EARTH","PERIAPSIS":"545.866","BSTAR":"-0.00002815100000","INCLINATION":"53.0538","SEMIMAJOR_AXIS":"6925.370","MEAN_MOTION":"15.06393117","TLE_LINE1":"1 44752U 19074AR  21234.92095979 -.00000701  00000-0 -28151-4 0  9996","PERIOD":"95.593","MEAN_ELEMENT_THEORY":"SGP4","RA_OF_ASC_NODE":"97.6121","OBJECT_NAME":"STARLINK-1047","NORAD_CAT_ID":"44752","ARG_OF_PERICENTER":"85.8301","APOAPSIS":"548.604","TIME_SYSTEM":"UTC","OBJECT_TYPE":"PAYLOAD","ECCENTRICITY":"0.00019770","LAUNCH_DATE":"2019-11-11","CLASSIFICATION_TYPE":"U","REF_FRAME":"TEME","MEAN_MOTION_DDOT":"0.0000000000000","SITE":"AFETR","EPOCH":"2021-08-22T22:06:10.925856","FILE":"3101563"},{"OBJECT_NAME":"STARLINK-1048","NORAD_CAT_ID":"44753","ARG_OF_PERICENTER":"88.6960","APOAPSIS":"548.541","OBJECT_TYPE":"PAYLOAD","TIME_SYSTEM":"UTC","PERIOD":"95.593","MEAN_ELEMENT_THEORY":"SGP4","RA_OF_ASC_NODE":"77.8960","MEAN_MOTION_DDOT":"0.0000000000000","REF_FRAME":"TEME","SITE":"AFETR","EPOCH":"2021-08-22T20:38:36.503808","FILE":"3101563","ECCENTRICITY":"0.00018730","LAUNCH_DATE":"2019-11-11","CLASSIFICATION_TYPE":"U","RCS_SIZE":"LARGE","ELEMENT_SET_NO":"999","MEAN_MOTION_DOT":"0.00000600","TLE_LINE2":"2 44753  53.0550  77.8960 0001873  88.6960 271.4244 15.06390145 98573","OBJECT_ID":"2019-074AS","GP_ID":"183269691","DECAY_DATE":null,"EPHEMERIS_TYPE":"0","COUNTRY_CODE":"US","MEAN_ANOMALY":"271.4244","REV_AT_EPOCH":"9857","SEMIMAJOR_AXIS":"6925.379","MEAN_MOTION":"15.06390145","TLE_LINE1":"1 44753U 19074AS  21234.86014472  .00000600  00000-0  59181-4 0  9992","CENTER_NAME":"EARTH","PERIAPSIS":"545.947","BSTAR":"0.00005918100000","INCLINATION":"53.0550"},{"RA_OF_ASC_NODE":"77.8701","MEAN_ELEMENT_THEORY":"SGP4","PERIOD":"95.593","ARG_OF_PERICENTER":"91.0106","OBJECT_NAME":"STARLINK-1049","NORAD_CAT_ID":"44754","TIME_SYSTEM":"UTC","OBJECT_TYPE":"PAYLOAD","APOAPSIS":"548.312","CLASSIFICATION_TYPE":"U","LAUNCH_DATE":"2019-11-11","ECCENTRICITY":"0.00015450","EPOCH":"2021-08-22T20:43:54.772896","SITE":"AFETR","REF_FRAME":"TEME","MEAN_MOTION_DDOT":"0.0000000000000","FILE":"3101563","DECAY_DATE":null,"REV_AT_EPOCH":"9857","MEAN_ANOMALY":"269.1060","EPHEMERIS_TYPE":"0","COUNTRY_CODE":"US","MEAN_MOTION_DOT":"0.00000521","TLE_LINE2":"2 44754  53.0552  77.8701 0001545  91.0106 269.1060 15.06390585 98573","ELEMENT_SET_NO":"999","RCS_SIZE":"LARGE","GP_ID":"183269941","OBJECT_ID":"2019-074AT","CENTER_NAME":"EARTH","PERIAPSIS":"546.172","INCLINATION":"53.0552","BSTAR":"0.00005388900000","MEAN_MOTION":"15.06390585","SEMIMAJOR_AXIS":"6925.377","TLE_LINE1":"1 44754U 19074AT  21234.86382839  .00000521  00000-0  53889-4 0  9999"},{"OBJECT_ID":"2019-074AU","GP_ID":"183270192","MEAN_MOTION_DOT":"-0.00000918","TLE_LINE2":"2 44755  53.0549 118.2533 0002131  78.5983 281.5245 15.06397464 98552","ELEMENT_SET_NO":"999","RCS_SIZE":"LARGE","MEAN_ANOMALY":"281.5245","REV_AT_EPOCH":"9855","COUNTRY_CODE":"US","EPHEMERIS_TYPE":"0","DECAY_DATE":null,"TLE_LINE1":"1 44755U 19074AU  21234.77904765 -.00000918  00000-0 -42747-4 0  9991","MEAN_MOTION":"15.06397464","SEMIMAJOR_AXIS":"6925.356","BSTAR":"-0.00004274700000","PERIAPSIS":"545.746","INCLINATION":"53.0549","CENTER_NAME":"EARTH","TIME_SYSTEM":"UTC","OBJECT_TYPE":"PAYLOAD","APOAPSIS":"548.697","ARG_OF_PERICENTER":"78.5983","NORAD_CAT_ID":"44755","OBJECT_NAME":"STARLINK-1050","RA_OF_ASC_NODE":"118.2533","PERIOD":"95.592","MEAN_ELEMENT_THEORY":"SGP4","FILE":"3101563","SITE":"AFETR","EPOCH":"2021-08-22T18:41:49.716960","MEAN_MOTION_DDOT":"0.0000000000000","REF_FRAME":"TEME","CLASSIFICATION_TYPE":"U","ECCENTRICITY":"0.00021310","LAUNCH_DATE":"2019-11-11"},{"OBJECT_NAME":"STARLINK-1051","NORAD_CAT_ID":"44756","ARG_OF_PERICENTER":"25.6110","APOAPSIS":"363.242","TIME_SYSTEM":"UTC","OBJECT_TYPE":"PAYLOAD","MEAN_ELEMENT_THEORY":"SGP4","PERIOD":"91.779","RA_OF_ASC_NODE":"41.4284","REF_FRAME":"TEME","MEAN_MOTION_DDOT":"0.0000000000000","EPOCH":"2021-08-22T20:33:31.377024","SITE":"AFETR","FILE":"3101563","LAUNCH_DATE":"2019-11-11","ECCENTRICITY":"0.00021670","CLASSIFICATION_TYPE":"U","ELEMENT_SET_NO":"999","RCS_SIZE":"LARGE","TLE_LINE2":"2 44756  53.0525  41.4284 0002167  25.6110 334.5013 15.68992855 99085","MEAN_MOTION_DOT":"-0.00031498","GP_ID":"183270443","OBJECT_ID":"2019-074AV","DECAY_DATE":null,"EPHEMERIS_TYPE":"0","COUNTRY_CODE":"US","REV_AT_EPOCH":"9908","MEAN_ANOMALY":"334.5013","SEMIMAJOR_AXIS":"6739.917","MEAN_MOTION":"15.68992855","TLE_LINE1":"1 44756U 19074AV  21234.85661316 -.00031498  00000-0 -26380-3 0  9994","CENTER_NAME":"EARTH","BSTAR":"-0.00026380000000","PERIAPSIS":"360.321","INCLINATION":"53.0525"},{"DECAY_DATE":null,"REV_AT_EPOCH":"9829","MEAN_ANOMALY":"279.5892","COUNTRY_CODE":"US","EPHEMERIS_TYPE":"0","MEAN_MOTION_DOT":"-0.00000413","TLE_LINE2":"2 44757  53.0537  97.8495 0002109  80.5336 279.5892 15.06394907 98295","ELEMENT_SET_NO":"999","RCS_SIZE":"LARGE","GP_ID":"183269191","OBJECT_ID":"2019-074AW","CENTER_NAME":"EARTH","PERIAPSIS":"545.769","BSTAR":"-0.00000882850000","INCLINATION":"53.0537","MEAN_MOTION":"15.06394907","SEMIMAJOR_AXIS":"6925.364","TLE_LINE1":"1 44757U 19074AW  21234.86567365 -.00000413  00000-0 -88285-5 0  9992","RA_OF_ASC_NODE":"97.8495","MEAN_ELEMENT_THEORY":"SGP4","PERIOD":"95.592","ARG_OF_PERICENTER":"80.5336","NORAD_CAT_ID":"44757","OBJECT_NAME":"STARLINK-1052","TIME_SYSTEM":"UTC","OBJECT_TYPE":"PAYLOAD","APOAPSIS":"548.690","CLASSIFICATION_TYPE":"U","LAUNCH_DATE":"2019-11-11","ECCENTRICITY":"0.00021090","EPOCH":"2021-08-22T20:46:34.203360","SITE":"AFETR","MEAN_MOTION_DDOT":"0.0000000000000","REF_FRAME":"TEME","FILE":"3101563"},{"PERIOD":"95.592","MEAN_ELEMENT_THEORY":"SGP4","RA_OF_ASC_NODE":"117.5218","OBJECT_NAME":"STARLINK-1053","NORAD_CAT_ID":"44758","ARG_OF_PERICENTER":"72.0496","APOAPSIS":"549.112","OBJECT_TYPE":"PAYLOAD","TIME_SYSTEM":"UTC","ECCENTRICITY":"0.00027480","LAUNCH_DATE":"2019-11-11","CLASSIFICATION_TYPE":"U","REF_FRAME":"TEME","MEAN_MOTION_DDOT":"0.0000000000000","SITE":"AFETR","EPOCH":"2021-08-22T22:34:01.031808","FILE":"3101563","DECAY_DATE":null,"COUNTRY_CODE":"US","EPHEMERIS_TYPE":"0","MEAN_ANOMALY":"288.0792","REV_AT_EPOCH":"9803","RCS_SIZE":"LARGE","ELEMENT_SET_NO":"999","TLE_LINE2":"2 44758  53.0535 117.5218 0002748  72.0496 288.0792 15.06401629 98035","MEAN_MOTION_DOT":"0.00001462","OBJECT_ID":"2019-074AX","GP_ID":"183269441","CENTER_NAME":"EARTH","BSTAR":"0.00011702000000","PERIAPSIS":"545.305","INCLINATION":"53.0535","SEMIMAJOR_AXIS":"6925.344","MEAN_MOTION":"15.06401629","TLE_LINE1":"1 44758U 19074AX  21234.94028972  .00001462  00000-0  11702-3 0  9999"}];
